H1 CPF 01  gfz 2022 04 08 00  5981 tandemx   
H2 1003001  6202 36605    2022 04 08 00 59 42 2022 04 13 00 00 42   120 1 1  0 0 0
H9
10 0 59677  20142.000000  0     715728.089    972116.463   6770795.420
10 0 59677  20262.000000  0    1618667.790   1036869.124   6603882.634
10 0 59677  20382.000000  0    2494199.365   1067962.380   6320901.685
10 0 59677  20502.000000  0    3326443.771   1065467.549   5926798.035
10 0 59677  20622.000000  0    4100274.972   1030312.288   5428466.005
10 0 59677  20742.000000  0    4801597.835    964249.966   4834633.467
10 0 59677  20862.000000  0    5417611.440    869809.695   4155716.614
10 0 59677  20982.000000  0    5937053.038    750228.620   3403641.359
10 0 59677  21102.000000  0    6350413.939    609367.633   2591634.084
10 0 59677  21222.000000  0    6650122.104    451611.306   1733988.045
10 0 59677  21342.000000  0    6830690.897    281755.551    845808.053
10 0 59677  21462.000000  0    6888825.088    104885.294    -57262.667
10 0 59677  21582.000000  0    6823484.354    -73755.064   -959326.675
10 0 59677  21702.000000  0    6635900.043   -248894.735  -1844521.456
10 0 59677  21822.000000  0    6329546.088   -415369.591  -2697306.370
10 0 59677  21942.000000  0    5910065.478   -568252.300  -3502740.778
10 0 59677  22062.000000  0    5385154.805   -702975.761  -4246748.452
10 0 59677  22182.000000  0    4764409.769   -815446.415  -4916362.242
10 0 59677  22302.000000  0    4059137.774   -902144.941  -5499944.364
10 0 59677  22422.000000  0    3282142.187   -960213.582  -5987380.752
10 0 59677  22542.000000  0    2447482.176   -987527.813  -6370246.009
10 0 59677  22662.000000  0    1570214.575   -982749.619  -6641937.321
10 0 59677  22782.000000  0     666122.891   -945363.675  -6797777.274
10 0 59677  22902.000000  0    -248563.137   -875695.526  -6835086.211
10 0 59677  23022.000000  0   -1157452.744   -774910.657  -6753222.563
10 0 59677  23142.000000  0   -2044280.823   -644995.456  -6553593.188
10 0 59677  23262.000000  0   -2893192.653   -488719.502  -6239630.823
10 0 59677  23382.000000  0   -3689020.433   -309580.556  -5816741.058
10 0 59677  23502.000000  0   -4417552.148   -111732.353  -5292220.525
10 0 59677  23622.000000  0   -5065787.146    100103.680  -4675141.638
10 0 59677  23742.000000  0   -5622173.120    320740.789  -3976207.985
10 0 59677  23862.000000  0   -6076822.174    544643.158  -3207579.291
10 0 59677  23982.000000  0   -6421698.683    766052.761  -2382667.185
10 0 59677  24102.000000  0   -6650774.181    979124.669  -1515904.739
10 0 59677  24222.000000  0   -6760146.352   1178067.082   -622494.285
10 0 59677  24342.000000  0   -6748116.622   1357282.779    281865.212
10 0 59677  24462.000000  0   -6615221.609   1511508.026   1181260.679
10 0 59677  24582.000000  0   -6364222.008   1635946.476   2059852.676
10 0 59677  24702.000000  0   -6000046.398   1726393.839   2902163.754
10 0 59677  24822.000000  0   -5529690.676   1779349.524   3693359.996
10 0 59677  24942.000000  0   -4962075.726   1792112.465   4419518.370
10 0 59677  25062.000000  0   -4307868.844   1762859.266   5067874.098
10 0 59677  25182.000000  0   -3579274.240   1690703.019   5627044.326
10 0 59677  25302.000000  0   -2789797.603   1575731.586   6087225.814
10 0 59677  25422.000000  0   -1953987.805   1419024.962   6440363.457
10 0 59677  25542.000000  0   -1087162.061   1222650.205   6680284.871
10 0 59677  25662.000000  0    -205122.219    989635.176   6802800.996
10 0 59677  25782.000000  0     676133.131    723921.693   6805774.071
10 0 59677  25902.000000  0    1540697.790    430298.598   6689152.456
10 0 59677  26022.000000  0    2373043.768    114316.049   6454971.588
10 0 59677  26142.000000  0    3158299.757   -217818.331   6107321.879
10 0 59677  26262.000000  0    3882518.975   -559359.855   5652281.988
10 0 59677  26382.000000  0    4532930.424   -903161.505   5097817.828
10 0 59677  26502.000000  0    5098169.811  -1241821.202   4453649.416
10 0 59677  26622.000000  0    5568486.162  -1567837.992   3731085.321
10 0 59677  26742.000000  0    5935919.321  -1873774.879   2942826.937
10 0 59677  26862.000000  0    6194443.969  -2152424.444   2102745.031
10 0 59677  26982.000000  0    6340075.815  -2396972.953   1225632.828
10 0 59677  27102.000000  0    6370938.275  -2601158.950    326939.908
10 0 59677  27222.000000  0    6287286.240  -2759422.535   -577508.172
10 0 59677  27342.000000  0    6091487.137  -2867040.853  -1471797.809
10 0 59677  27462.000000  0    5787957.698  -2920246.699  -2340216.520
10 0 59677  27582.000000  0    5383060.507  -2916326.674  -3167535.277
10 0 59677  27702.000000  0    4884963.576  -2853697.031  -3939279.236
10 0 59677  27822.000000  0    4303467.007  -2731956.582  -4641981.202
10 0 59677  27942.000000  0    3649800.310  -2551914.774  -5263413.954
10 0 59677  28062.000000  0    2936396.156  -2315594.306  -5792795.044
10 0 59677  28182.000000  0    2176649.189  -2026210.081  -6220962.976
10 0 59677  28302.000000  0    1384662.786  -1688125.070  -6540526.246
10 0 59677  28422.000000  0     574986.842  -1306781.514  -6745980.428
10 0 59677  28542.000000  0    -237647.232   -888614.485  -6833792.216
10 0 59677  28662.000000  0   -1038588.946   -440944.533  -6802452.887
10 0 59677  28782.000000  0   -1813525.657     28149.084  -6652501.682
10 0 59677  28902.000000  0   -2548732.901    509969.891  -6386516.513
10 0 59677  29022.000000  0   -3231311.654    995360.612  -6009074.282
10 0 59677  29142.000000  0   -3849411.622   1474872.434  -5526681.491
10 0 59677  29262.000000  0   -4392438.635   1938944.435  -4947673.667
10 0 59677  29382.000000  0   -4851241.099   2378091.944  -4282083.078
10 0 59677  29502.000000  0   -5218271.190   2783098.880  -3541474.688
10 0 59677  29622.000000  0   -5487717.752   3145209.506  -2738754.284
10 0 59677  29742.000000  0   -5655608.922   3456317.382  -1887949.721
10 0 59677  29862.000000  0   -5719879.731   3709146.355  -1003967.380
10 0 59677  29982.000000  0   -5680402.232   3897417.883   -102328.433
10 0 59677  30102.000000  0   -5538977.617   4016001.406    801109.318
10 0 59677  30222.000000  0   -5299288.326   4061042.374   1690439.859
10 0 59677  30342.000000  0   -4966810.628   4030064.099   2549998.146
10 0 59677  30462.000000  0   -4548692.182   3922042.226   3364643.808
10 0 59677  30582.000000  0   -4053596.950   3737449.560   4120035.412
10 0 59677  30702.000000  0   -3491521.196   3478268.774   4802887.096
10 0 59677  30822.000000  0   -2873586.305   3147975.263   5401203.763
10 0 59677  30942.000000  0   -2211812.306   2751489.275   5904490.390
10 0 59677  31062.000000  0   -1518878.745   2295099.321   6303932.384
10 0 59677  31182.000000  0    -807876.953   1786358.129   6592543.696
10 0 59677  31302.000000  0     -92061.787   1233954.660   6765281.392
10 0 59677  31422.000000  0     615395.182    647563.864   6819129.129
10 0 59677  31542.000000  0    1301647.510     37676.981   6753146.028
10 0 59677  31662.000000  0    1954405.989   -584585.352   6568482.464
10 0 59677  31782.000000  0    2562158.222  -1207675.498   6268361.869
10 0 59677  31902.000000  0    3114372.555  -1819832.204   5858028.749
10 0 59677  32022.000000  0    3601683.764  -2409303.087   5344662.580
10 0 59677  32142.000000  0    4016055.857  -2964571.123   4737257.732
10 0 59677  32262.000000  0    4350919.619  -3474582.181   4046471.616
10 0 59677  32382.000000  0    4601282.175  -3928968.937   3284441.512
10 0 59677  32502.000000  0    4763806.371  -4318265.877   2464572.593
10 0 59677  32622.000000  0    4836857.112  -4634109.624   1601299.505
10 0 59677  32742.000000  0    4820512.460  -4869419.844    709827.417
10 0 59677  32862.000000  0    4716539.821  -5018557.007   -194143.121
10 0 59677  32982.000000  0    4528337.925  -5077451.523  -1094699.904
10 0 59677  33102.000000  0    4260846.404  -5043701.581  -1976008.478
10 0 59677  33222.000000  0    3920423.553  -4916636.878  -2822599.171
10 0 59677  33342.000000  0    3514697.326  -4697346.817  -3619643.740
10 0 59677  33462.000000  0    3052393.214  -4388673.491  -4353216.979
10 0 59677  33582.000000  0    2543144.118  -3995170.017  -5010539.090
10 0 59677  33702.000000  0    1997286.123  -3523024.712  -5580192.236
10 0 59677  33822.000000  0    1425647.516  -2979956.374  -6052308.559
10 0 59677  33942.000000  0     839334.354  -2375083.225  -6418730.897
10 0 59677  34062.000000  0     249515.725  -1718765.868  -6673143.446
10 0 59677  34182.000000  0    -332785.917  -1022427.847  -6811169.730
10 0 59677  34302.000000  0    -896895.405   -298358.200  -6830438.912
10 0 59677  34422.000000  0   -1432675.468    440500.979  -6730621.512
10 0 59677  34542.000000  0   -1930704.746   1180779.715  -6513433.842
10 0 59677  34662.000000  0   -2382439.383   1908915.994  -6182611.678
10 0 59677  34782.000000  0   -2780357.512   2611398.011  -5743853.523
10 0 59677  34902.000000  0   -3118084.901   3275011.611  -5204733.258
10 0 59677  35022.000000  0   -3390499.765   3887088.409  -4574581.489
10 0 59677  35142.000000  0   -3593814.707   4435750.233  -3864334.655
10 0 59677  35262.000000  0   -3725631.915   4910143.752  -3086353.467
10 0 59677  35382.000000  0   -3784971.168   5300660.384  -2254215.214
10 0 59677  35502.000000  0   -3772271.581   5599138.215  -1382481.435
10 0 59677  35622.000000  0   -3689364.489   5799040.765   -486442.861
10 0 59677  35742.000000  0   -3539416.949   5895604.391    418152.896
10 0 59677  35862.000000  0   -3326849.280   5885952.594   1315386.682
10 0 59677  35982.000000  0   -3057225.257   5769172.983   2189456.384
10 0 59677  36102.000000  0   -2737117.589   5546353.007   3024966.284
10 0 59677  36222.000000  0   -2373954.382   5220573.878   3807205.427
10 0 59677  36342.000000  0   -1975850.778   4796865.463   4522411.351
10 0 59677  36462.000000  0   -1551429.712   4282122.735   5158014.545
10 0 59677  36582.000000  0   -1109635.488   3684986.059   5702859.597
99
